ALOS-4 (DAICHI-4)       
1 60182U 24123A   24258.87834231  .00002931  00000+0  39927-3 0  9993
2 60182  97.9211 354.2477 0001532  95.9183 264.2203 14.79467062 11205
